OBJECT_NAME,OBJECT_ID,EPOCH,MEAN_MOTION,ECCENTRICITY,INCLINATION,RA_OF_ASC_NODE,ARG_OF_PERICENTER,MEAN_ANOMALY,EPHEMERIS_TYPE,CLASSIFICATION_TYPE,NORAD_CAT_ID,ELEMENT_SET_NO,REV_AT_EPOCH,BSTAR,MEAN_MOTION_DOT,MEAN_MOTION_DDOT
STARLINK-32379,2024-202G,2026-07-05T22:33:07.732512,15.27553152,.00015988,43.0016,278.8237,266.3287,93.7382,0,U,61851,999,9354,-.20556394E-3,-.591E-4,0
STARLINK-32433,2024-202H,2026-07-05T23:45:03.707136,15.27541466,.00012906,43.0037,289.5867,231.3006,128.7730,0,U,61852,999,9343,-.21620701E-3,-.62E-4,0
STARLINK-32394,2024-202J,2026-07-05T08:07:08.179104,15.27584908,.0002393,43.0039,293.3026,286.7580,73.3008,0,U,61853,999,9332,-.16812E-4,-.725E-5,0
STARLINK-32486,2024-202K,2026-07-05T23:54:15.149952,15.27580088,.00022994,43.0048,289.6377,266.1267,93.9322,0,U,61854,999,9343,-.54039479E-4,-.1749E-4,0
STARLINK-32391,2024-202L,2026-07-05T23:59:51.510336,15.27542130,.00017352,43.0044,289.6668,258.7700,101.2957,0,U,61855,999,9342,-.1864361E-3,-.5383E-4,0
STARLINK-32483,2024-202M,2026-07-05T08:23:47.063328,15.27588211,.0001515,43.0043,293.3872,272.2822,87.7856,0,U,61856,999,9333,.23549E-4,.386E-5,0
STARLINK-32451,2024-202N,2026-07-05T17:59:51.643392,15.27557274,.00016938,43.0045,291.2305,279.0282,81.0378,0,U,61857,999,9339,-.98037279E-4,-.2957E-4,0
STARLINK-32556,2024-202P,2026-07-05T16:20:11.918400,15.27528368,.00012267,43.0039,291.5688,262.3397,97.7315,0,U,61858,999,9338,-.25420506E-3,-.7239E-4,0
STARLINK-32466,2024-202Q,2026-07-05T16:29:25.049472,15.27559718,.00015003,43.0047,291.6176,240.7633,119.3069,0,U,61859,999,9338,-.11277931E-3,-.3362E-4,0
STARLINK-32316,2024-202R,2026-07-05T23:56:52.486944,15.27536335,.00010392,43.0013,286.1827,229.1533,130.9228,0,U,61860,999,9346,-.2265906E-3,-.6483E-4,0
STARLINK-32415,2024-202S,2026-07-05T08:49:43.680288,15.27564051,.000142,42.9984,293.5171,256.4283,103.6410,0,U,61861,999,9332,-.93972E-5,-.52E-5,0
STARLINK-32393,2024-202T,2026-07-05T16:34:59.343168,15.27538114,.00016202,43.0037,291.6489,267.2981,92.7685,0,U,61862,999,9338,-.19949451E-3,-.5741E-4,0
STARLINK-32324,2024-202U,2026-07-05T16:51:36.681696,15.27554696,.00025142,43.0064,291.7396,273.0704,86.9860,0,U,61863,999,9337,-.43070223E-4,-.1447E-4,0
STARLINK-32318,2024-202V,2026-07-05T07:35:53.585088,15.27584791,.0000375,42.9976,293.9976,144.2274,215.8602,0,U,61864,999,9332,.89658E-4,.2207E-4,0
STARLINK-32401,2024-202W,2026-07-05T17:06:26.784864,15.27540878,.00012535,42.9995,291.8078,247.3257,112.7462,0,U,61865,999,9338,-.20184697E-3,-.5805E-4,0
STARLINK-32588,2024-202X,2026-07-05T18:31:19.534368,15.27566221,.0001491,43.0015,291.3950,262.8696,97.1986,0,U,61866,999,9339,-.82413517E-4,-.2528E-4,0
STARLINK-32569,2024-202Y,2026-07-05T23:28:36.799680,15.27554394,.00020065,43.0063,290.3611,272.3101,87.7521,0,U,61867,999,9342,-.21086199E-3,-.6056E-4,0
STARLINK-11402 [DTC],2024-204A,2026-07-06T03:18:35.295264,15.69711873,.00014594,53.1593,132.7179,137.0637,223.0495,0,U,61874,999,9610,.27145747E-4,.2701E-4,0
STARLINK-11316 [DTC],2024-204B,2026-07-06T03:25:30.388512,15.69702276,.0001568,53.1594,131.9974,72.4130,287.7059,0,U,61875,999,9552,.13834908E-4,.1087E-4,0
STARLINK-11321 [DTC],2024-204D,2026-07-06T03:04:25.457088,15.69742233,.00009451,53.1573,132.6346,91.1298,268.9828,0,U,61877,999,9550,.48663308E-4,.5318E-4,0
STARLINK-11314 [DTC],2024-204E,2026-07-06T02:57:24.637248,15.69703102,.00012915,53.1580,132.5992,88.6669,271.4496,0,U,61878,999,9551,.31938867E-4,.3281E-4,0
STARLINK-11324 [DTC],2024-204F,2026-07-06T02:50:20.826240,15.69700928,.00017685,53.1580,132.5651,101.7114,258.4103,0,U,61879,999,9551,.25841301E-4,.2541E-4,0
STARLINK-11328 [DTC],2024-204G,2026-07-06T02:43:17.619168,15.69696999,.00011901,53.1587,132.5335,105.4570,254.6579,0,U,61880,999,9551,-.11442683E-4,-.1974E-4,0
STARLINK-11329 [DTC],2024-204H,2026-07-06T02:36:13.748544,15.69697137,.0001645,53.1584,132.4990,104.4412,255.6789,0,U,61881,999,9551,-.10857611E-4,-.1904E-4,0
STARLINK-11398 [DTC],2024-204J,2026-07-06T00:57:29.279808,15.69669689,.00011315,53.1570,132.7833,73.5344,286.5798,0,U,61882,999,9550,-.7388371E-4,-.9514E-4,0
STARLINK-11383 [DTC],2024-204K,2026-07-06T02:15:00.685152,15.69720759,.00015423,53.1595,132.4057,75.3244,284.7945,0,U,61883,999,9551,-.10820044E-4,-.1901E-4,0
STARLINK-11359 [DTC],2024-204L,2026-07-06T02:22:04.907424,15.69709507,.00018108,53.1596,132.4319,132.9773,227.1397,0,U,61884,999,9551,.20949823E-4,.1949E-4,0
STARLINK-11301 [DTC],2024-204M,2026-07-06T03:39:38.116800,15.69714039,.0001058,53.1581,132.0558,96.6469,263.4670,0,U,61885,999,9552,.18856817E-4,.1697E-4,0
STARLINK-11351 [DTC],2024-204N,2026-07-06T03:32:31.820928,15.69727643,.00011849,53.1591,132.0200,142.4141,217.6960,0,U,61886,999,9552,.92981158E-4,.10698E-3,0
STARLINK-32410,2024-204P,2026-07-05T16:23:34.779552,15.34348993,.00009333,53.1602,296.8419,100.1363,259.9745,0,U,61887,999,9319,-.25984603E-3,-.913E-4,0
