[ {"name": "STARLINK-32379", "line1": "1 61851U 24202G   26186.93967283 -.00005910  00000+0 -20556-3 0  9998", "line2": "2 61851  43.0016 278.8237 0001598 266.3287  93.7382 15.27553152 93540"}, {"name": "STARLINK-32433", "line1": "1 61852U 24202H   26186.98962624 -.00006200  00000+0 -21621-3 0  9995", "line2": "2 61852  43.0037 289.5867 0001290 231.3006 128.7730 15.27541466 93431"}, {"name": "STARLINK-32394", "line1": "1 61853U 24202J   26186.33828911 -.00000725  00000+0 -16812-4 0  9998", "line2": "2 61853  43.0039 293.3026 0002393 286.7580  73.3008 15.27584908 93329"}, {"name": "STARLINK-32486", "line1": "1 61854U 24202K   26186.99600868 -.00001749  00000+0 -54039-4 0  9990", "line2": "2 61854  43.0048 289.6377 0002299 266.1267  93.9322 15.27580088 93430"}, {"name": "STARLINK-32391", "line1": "1 61855U 24202L   26186.99990174 -.00005383  00000+0 -18644-3 0  9992", "line2": "2 61855  43.0044 289.6668 0001735 258.7700 101.2957 15.27542130 93425"}, {"name": "STARLINK-32483", "line1": "1 61856U 24202M   26186.34985027  .00000386  00000+0  23549-4 0  9990", "line2": "2 61856  43.0043 293.3872 0001515 272.2822  87.7856 15.27588211 93332"}, {"name": "STARLINK-32451", "line1": "1 61857U 24202N   26186.74990328 -.00002957  00000+0 -98037-4 0  9997", "line2": "2 61857  43.0045 291.2305 0001693 279.0282  81.0378 15.27557274 93392"}, {"name": "STARLINK-32556", "line1": "1 61858U 24202P   26186.68069350 -.00007239  00000+0 -25421-3 0  9997", "line2": "2 61858  43.0039 291.5688 0001226 262.3397  97.7315 15.27528368 93383"}, {"name": "STARLINK-32466", "line1": "1 61859U 24202Q   26186.68709548 -.00003362  00000+0 -11278-3 0  9996", "line2": "2 61859  43.0047 291.6176 0001500 240.7633 119.3069 15.27559718 93384"}, {"name": "STARLINK-32316", "line1": "1 61860U 24202R   26186.99782971 -.00006483  00000+0 -22659-3 0  9995", "line2": "2 61860  43.0013 286.1827 0001039 229.1533 130.9228 15.27536335 93463"}, {"name": "STARLINK-32415", "line1": "1 61861U 24202S   26186.36786667 -.00000520  00000+0 -93972-5 0  9997", "line2": "2 61861  42.9984 293.5171 0001420 256.4283 103.6410 15.27564051 93323"}, {"name": "STARLINK-32393", "line1": "1 61862U 24202T   26186.69096462 -.00005741  00000+0 -19949-3 0  9991", "line2": "2 61862  43.0037 291.6489 0001620 267.2981  92.7685 15.27538114 93382"}, {"name": "STARLINK-32324", "line1": "1 61863U 24202U   26186.70250789 -.00001447  00000+0 -43070-4 0  9990", "line2": "2 61863  43.0064 291.7396 0002514 273.0704  86.9860 15.27554696 93374"}, {"name": "STARLINK-32318", "line1": "1 61864U 24202V   26186.31659242  .00002207  00000+0  89658-4 0  9990", "line2": "2 61864  42.9976 293.9976 0000375 144.2274 215.8602 15.27584791 93328"}, {"name": "STARLINK-32401", "line1": "1 61865U 24202W   26186.71281001 -.00005805  00000+0 -20185-3 0  9997", "line2": "2 61865  42.9995 291.8078 0001253 247.3257 112.7462 15.27540878 93385"}, {"name": "STARLINK-32588", "line1": "1 61866U 24202X   26186.77175387 -.00002528  00000+0 -82414-4 0  9996", "line2": "2 61866  43.0015 291.3950 0001491 262.8696  97.1986 15.27566221 93396"}, {"name": "STARLINK-32569", "line1": "1 61867U 24202Y   26186.97820370 -.00006056  00000+0 -21086-3 0  9995", "line2": "2 61867  43.0063 290.3611 0002006 272.3101  87.7521 15.27554394 93425"}, {"name": "STARLINK-11402 [DTC]", "line1": "1 61874U 24204A   26187.13790851  .00002701  00000+0  27146-4 0  9999", "line2": "2 61874  53.1593 132.7179 0001459 137.0637 223.0495 15.69711873 96109"}, {"name": "STARLINK-11316 [DTC]", "line1": "1 61875U 24204B   26187.14271283  .00001087  00000+0  13835-4 0  9990", "line2": "2 61875  53.1594 131.9974 0001568  72.4130 287.7059 15.69702276 95521"}, {"name": "STARLINK-11321 [DTC]", "line1": "1 61877U 24204D   26187.12807242  .00005318  00000+0  48663-4 0  9998", "line2": "2 61877  53.1573 132.6346 0000945  91.1298 268.9828 15.69742233 95502"}, {"name": "STARLINK-11314 [DTC]", "line1": "1 61878U 24204E   26187.12320182  .00003281  00000+0  31939-4 0  9997", "line2": "2 61878  53.1580 132.5992 0001291  88.6669 271.4496 15.69703102 95518"}, {"name": "STARLINK-11324 [DTC]", "line1": "1 61879U 24204F   26187.11829660  .00002541  00000+0  25841-4 0  9995", "line2": "2 61879  53.1580 132.5651 0001768 101.7114 258.4103 15.69700928 95515"}, {"name": "STARLINK-11328 [DTC]", "line1": "1 61880U 24204G   26187.11339837 -.00001974  00000+0 -11443-4 0  9993", "line2": "2 61880  53.1587 132.5335 0001190 105.4570 254.6579 15.69696999 95516"}, {"name": "STARLINK-11329 [DTC]", "line1": "1 61881U 24204H   26187.10849246 -.00001904  00000+0 -10858-4 0  9995", "line2": "2 61881  53.1584 132.4990 0001645 104.4412 255.6789 15.69697137 95518"}, {"name": "STARLINK-11398 [DTC]", "line1": "1 61882U 24204J   26187.03992222 -.00009514  00000+0 -73884-4 0  9994", "line2": "2 61882  53.1570 132.7833 0001131  73.5344 286.5798 15.69669689 95506"}, {"name": "STARLINK-11383 [DTC]", "line1": "1 61883U 24204K   26187.09375793 -.00001901  00000+0 -10820-4 0  9992", "line2": "2 61883  53.1595 132.4057 0001542  75.3244 284.7945 15.69720759 95515"}, {"name": "STARLINK-11359 [DTC]", "line1": "1 61884U 24204L   26187.09866791  .00001949  00000+0  20950-4 0  9991", "line2": "2 61884  53.1596 132.4319 0001810 132.9773 227.1397 15.69709507 95513"}, {"name": "STARLINK-11301 [DTC]", "line1": "1 61885U 24204M   26187.15252450  .00001697  00000+0  18857-4 0  9993", "line2": "2 61885  53.1581 132.0558 0001058  96.6469 263.4670 15.69714039 95525"}, {"name": "STARLINK-11351 [DTC]", "line1": "1 61886U 24204N   26187.14759052  .00010698  00000+0  92981-4 0  9994", "line2": "2 61886  53.1591 132.0200 0001184 142.4141 217.6960 15.69727643 95526"}, {"name": "STARLINK-32410", "line1": "1 61887U 24204P   26186.68304143 -.00009130  00000+0 -25985-3 0  9990", "line2": "2 61887  53.1602 296.8419 0000933 100.1363 259.9745 15.34348993 93199"}]